start=new Date('2022-07-11T00:00:00.000Z').valueOf();
sats=[{"ELEMENT_SET_NO":"999","PERIOD":"95.438","CENTER_NAME":"EARTH","SEMIMAJOR_AXIS":"6917.900","REF_FRAME":"TEME","RCS_SIZE":"LARGE","LAUNCH_DATE":"2021-12-02","OBJECT_TYPE":"PAYLOAD","OBJECT_ID":"2021-115P","TLE_LINE2":"2 49737  53.2191  35.0560 0001794  82.0754 278.0442 15.08833492 33566","REV_AT_EPOCH":"3356","FILE":"3511318","TIME_SYSTEM":"UTC","INCLINATION":"53.2191","COUNTRY_CODE":"US","MEAN_ANOMALY":"278.0442","MEAN_ELEMENT_THEORY":"SGP4","GP_ID":"207875776","OBJECT_NAME":"STARLINK-3225","MEAN_MOTION":"15.08833492","RA_OF_ASC_NODE":"35.0560","APOAPSIS":"541.006","MEAN_MOTION_DOT":"-0.00001298","ECCENTRICITY":"0.00017940","PERIAPSIS":"538.524","NORAD_CAT_ID":"49737","TLE_LINE1":"1 49737U 21115P   22191.82071767 -.00001298  00000-0 -63462-4 0  9990","DECAY_DATE":null,"MEAN_MOTION_DDOT":"0.0000000000000","SITE":"AFETR","ARG_OF_PERICENTER":"82.0754","EPHEMERIS_TYPE":"0","BSTAR":"-0.00006346200000","CLASSIFICATION_TYPE":"U","EPOCH":"2022-07-10T19:41:50.006688"},{"TLE_LINE2":"2 49738  53.2185  35.0297 0002342  76.8102 283.3151 15.08828529 33566","REV_AT_EPOCH":"3356","FILE":"3511318","TIME_SYSTEM":"UTC","INCLINATION":"53.2185","COUNTRY_CODE":"US","ELEMENT_SET_NO":"999","SEMIMAJOR_AXIS":"6917.915","PERIOD":"95.438","CENTER_NAME":"EARTH","REF_FRAME":"TEME","LAUNCH_DATE":"2021-12-02","RCS_SIZE":"LARGE","OBJECT_ID":"2021-115Q","OBJECT_TYPE":"PAYLOAD","MEAN_MOTION":"15.08828529","RA_OF_ASC_NODE":"35.0297","MEAN_ELEMENT_THEORY":"SGP4","MEAN_ANOMALY":"283.3151","GP_ID":"207876026","OBJECT_NAME":"STARLINK-3143","ECCENTRICITY":"0.00023420","PERIAPSIS":"538.160","APOAPSIS":"541.401","MEAN_MOTION_DOT":"-0.00001656","EPHEMERIS_TYPE":"0","ARG_OF_PERICENTER":"76.8102","BSTAR":"-0.00008594700000","CLASSIFICATION_TYPE":"U","EPOCH":"2022-07-10T19:52:26.524128","NORAD_CAT_ID":"49738","TLE_LINE1":"1 49738U 21115Q   22191.82808477 -.00001656  00000-0 -85947-4 0  9997","DECAY_DATE":null,"MEAN_MOTION_DDOT":"0.0000000000000","SITE":"AFETR"},{"OBJECT_TYPE":"PAYLOAD","OBJECT_ID":"2021-115R","RCS_SIZE":"LARGE","LAUNCH_DATE":"2021-12-02","REF_FRAME":"TEME","SEMIMAJOR_AXIS":"6917.902","PERIOD":"95.438","CENTER_NAME":"EARTH","ELEMENT_SET_NO":"999","INCLINATION":"53.2173","COUNTRY_CODE":"US","TIME_SYSTEM":"UTC","FILE":"3511318","REV_AT_EPOCH":"3342","TLE_LINE2":"2 49739  53.2173  44.7968 0002634  78.4106 281.7182 15.08832834 33427","OBJECT_NAME":"STARLINK-3155","GP_ID":"207876778","MEAN_ANOMALY":"281.7182","MEAN_ELEMENT_THEORY":"SGP4","RA_OF_ASC_NODE":"44.7968","MEAN_MOTION":"15.08832834","MEAN_MOTION_DOT":"0.00002757","APOAPSIS":"541.589","PERIAPSIS":"537.945","ECCENTRICITY":"0.00026340","MEAN_MOTION_DDOT":"0.0000000000000","SITE":"AFETR","DECAY_DATE":null,"TLE_LINE1":"1 49739U 21115R   22191.87499481  .00002757  00000-0  19132-3 0  9997","NORAD_CAT_ID":"49739","EPOCH":"2022-07-10T20:59:59.551584","CLASSIFICATION_TYPE":"U","BSTAR":"0.00019132000000","ARG_OF_PERICENTER":"78.4106","EPHEMERIS_TYPE":"0"},{"MEAN_MOTION":"15.08842033","RA_OF_ASC_NODE":"34.9705","MEAN_ANOMALY":"280.9492","MEAN_ELEMENT_THEORY":"SGP4","OBJECT_NAME":"STARLINK-3226","GP_ID":"207876522","REV_AT_EPOCH":"3356","FILE":"3511318","TLE_LINE2":"2 49740  53.2167  34.9705 0002463  79.1777 280.9492 15.08842033 33566","TIME_SYSTEM":"UTC","COUNTRY_CODE":"US","INCLINATION":"53.2167","REF_FRAME":"TEME","ELEMENT_SET_NO":"999","SEMIMAJOR_AXIS":"6917.874","PERIOD":"95.437","CENTER_NAME":"EARTH","OBJECT_ID":"2021-115S","OBJECT_TYPE":"PAYLOAD","LAUNCH_DATE":"2021-12-02","RCS_SIZE":"LARGE","BSTAR":"-0.00010192000000","CLASSIFICATION_TYPE":"U","EPHEMERIS_TYPE":"0","ARG_OF_PERICENTER":"79.1777","EPOCH":"2022-07-10T20:08:19.602528","DECAY_DATE":null,"NORAD_CAT_ID":"49740","TLE_LINE1":"1 49740U 21115S   22191.83911577 -.00001910  00000-0 -10192-3 0  9999","MEAN_MOTION_DDOT":"0.0000000000000","SITE":"AFETR","PERIAPSIS":"538.035","ECCENTRICITY":"0.00024630","APOAPSIS":"541.443","MEAN_MOTION_DOT":"-0.00001910"},{"APOAPSIS":"541.142","MEAN_MOTION_DOT":"0.00015961","ECCENTRICITY":"0.00019110","PERIAPSIS":"538.497","NORAD_CAT_ID":"49741","TLE_LINE1":"1 49741U 21115T   22191.83176856  .00015961  00000-0  10193-2 0  9992","DECAY_DATE":null,"SITE":"AFETR","MEAN_MOTION_DDOT":"0.0000000000000","ARG_OF_PERICENTER":"71.8033","EPHEMERIS_TYPE":"0","BSTAR":"0.00101930000000","CLASSIFICATION_TYPE":"U","EPOCH":"2022-07-10T19:57:44.803584","ELEMENT_SET_NO":"999","SEMIMAJOR_AXIS":"6917.955","PERIOD":"95.439","CENTER_NAME":"EARTH","REF_FRAME":"TEME","LAUNCH_DATE":"2021-12-02","RCS_SIZE":"LARGE","OBJECT_ID":"2021-115T","OBJECT_TYPE":"PAYLOAD","TLE_LINE2":"2 49741  53.2157  35.0020 0001911  71.8033 288.3168 15.08815753 33560","REV_AT_EPOCH":"3356","FILE":"3511318","TIME_SYSTEM":"UTC","COUNTRY_CODE":"US","INCLINATION":"53.2157","MEAN_ELEMENT_THEORY":"SGP4","MEAN_ANOMALY":"288.3168","GP_ID":"207875276","OBJECT_NAME":"STARLINK-3244","MEAN_MOTION":"15.08815753","RA_OF_ASC_NODE":"35.0020"},{"RA_OF_ASC_NODE":"34.9407","MEAN_MOTION":"15.08838841","MEAN_ELEMENT_THEORY":"SGP4","MEAN_ANOMALY":"289.5621","GP_ID":"207875526","OBJECT_NAME":"STARLINK-3202","TLE_LINE2":"2 49742  53.2161  34.9407 0001826  70.5569 289.5621 15.08838841 33568","FILE":"3511318","REV_AT_EPOCH":"3356","COUNTRY_CODE":"US","INCLINATION":"53.2161","TIME_SYSTEM":"UTC","PERIOD":"95.438","SEMIMAJOR_AXIS":"6917.884","CENTER_NAME":"EARTH","ELEMENT_SET_NO":"999","REF_FRAME":"TEME","LAUNCH_DATE":"2021-12-02","RCS_SIZE":"LARGE","OBJECT_ID":"2021-115U","OBJECT_TYPE":"PAYLOAD","EPHEMERIS_TYPE":"0","ARG_OF_PERICENTER":"70.5569","BSTAR":"0.00028432000000","CLASSIFICATION_TYPE":"U","EPOCH":"2022-07-10T20:18:55.695744","TLE_LINE1":"1 49742U 21115U   22191.84647796  .00004240  00000-0  28432-3 0  9994","NORAD_CAT_ID":"49742","DECAY_DATE":null,"SITE":"AFETR","MEAN_MOTION_DDOT":"0.0000000000000","ECCENTRICITY":"0.00018260","PERIAPSIS":"538.486","APOAPSIS":"541.012","MEAN_MOTION_DOT":"0.00004240"},{"SITE":"AFETR","MEAN_MOTION_DDOT":"0.0000000000000","DECAY_DATE":null,"TLE_LINE1":"1 49743U 21115V   22191.83543793 -.00000780  00000-0 -30914-4 0  9992","NORAD_CAT_ID":"49743","EPOCH":"2022-07-10T20:03:01.837152","BSTAR":"-0.00003091400000","CLASSIFICATION_TYPE":"U","EPHEMERIS_TYPE":"0","ARG_OF_PERICENTER":"65.9105","MEAN_MOTION_DOT":"-0.00000780","APOAPSIS":"541.197","PERIAPSIS":"538.373","ECCENTRICITY":"0.00020410","OBJECT_NAME":"STARLINK-3239","GP_ID":"207876278","MEAN_ANOMALY":"294.2100","MEAN_ELEMENT_THEORY":"SGP4","RA_OF_ASC_NODE":"34.9886","MEAN_MOTION":"15.08826962","OBJECT_TYPE":"PAYLOAD","OBJECT_ID":"2021-115V","LAUNCH_DATE":"2021-12-02","RCS_SIZE":"LARGE","REF_FRAME":"TEME","PERIOD":"95.438","SEMIMAJOR_AXIS":"6917.920","CENTER_NAME":"EARTH","ELEMENT_SET_NO":"999","INCLINATION":"53.2166","COUNTRY_CODE":"US","TIME_SYSTEM":"UTC","FILE":"3511318","REV_AT_EPOCH":"3356","TLE_LINE2":"2 49743  53.2166  34.9886 0002041  65.9105 294.2100 15.08826962 33565"},{"MEAN_ELEMENT_THEORY":"SGP4","MEAN_ANOMALY":"282.4944","OBJECT_NAME":"STARLINK-3231","GP_ID":"207877023","RA_OF_ASC_NODE":"34.9000","MEAN_MOTION":"15.08822808","REF_FRAME":"TEME","PERIOD":"95.439","SEMIMAJOR_AXIS":"6917.933","CENTER_NAME":"EARTH","ELEMENT_SET_NO":"999","OBJECT_TYPE":"PAYLOAD","OBJECT_ID":"2021-115W","LAUNCH_DATE":"2021-12-02","RCS_SIZE":"LARGE","FILE":"3511318","REV_AT_EPOCH":"3356","TLE_LINE2":"2 49744  53.2164  34.9000 0002261  77.6301 282.4944 15.08822808 33564","INCLINATION":"53.2164","COUNTRY_CODE":"US","TIME_SYSTEM":"UTC","DECAY_DATE":null,"TLE_LINE1":"1 49744U 21115W   22191.85384041 -.00001685  00000-0 -87825-4 0  9992","NORAD_CAT_ID":"49744","MEAN_MOTION_DDOT":"0.0000000000000","SITE":"AFETR","BSTAR":"-0.00008782500000","CLASSIFICATION_TYPE":"U","EPHEMERIS_TYPE":"0","ARG_OF_PERICENTER":"77.6301","EPOCH":"2022-07-10T20:29:31.811424","APOAPSIS":"541.362","MEAN_MOTION_DOT":"-0.00001685","PERIAPSIS":"538.234","ECCENTRICITY":"0.00022610"},{"MEAN_MOTION_DOT":"0.00014883","APOAPSIS":"541.204","ECCENTRICITY":"0.00020110","PERIAPSIS":"538.422","SITE":"AFETR","MEAN_MOTION_DDOT":"0.0000000000000","NORAD_CAT_ID":"49745","TLE_LINE1":"1 49745U 21115X   22191.84280486  .00014883  00000-0  95180-3 0  9994","DECAY_DATE":null,"EPOCH":"2022-07-10T20:13:38.339904","EPHEMERIS_TYPE":"0","ARG_OF_PERICENTER":"69.5623","BSTAR":"0.00095180000000","CLASSIFICATION_TYPE":"U","RCS_SIZE":"LARGE","LAUNCH_DATE":"2021-12-02","OBJECT_ID":"2021-115X","OBJECT_TYPE":"PAYLOAD","ELEMENT_SET_NO":"999","SEMIMAJOR_AXIS":"6917.948","PERIOD":"95.439","CENTER_NAME":"EARTH","REF_FRAME":"TEME","TIME_SYSTEM":"UTC","COUNTRY_CODE":"US","INCLINATION":"53.2161","TLE_LINE2":"2 49745  53.2161  34.9601 0002011  69.5623 290.5585 15.08817926 33565","REV_AT_EPOCH":"3356","FILE":"3511318","GP_ID":"207875777","OBJECT_NAME":"STARLINK-3241","MEAN_ELEMENT_THEORY":"SGP4","MEAN_ANOMALY":"290.5585","MEAN_MOTION":"15.08817926","RA_OF_ASC_NODE":"34.9601"},{"PERIAPSIS":"538.737","ECCENTRICITY":"0.00015170","MEAN_MOTION_DOT":"-0.00000097","APOAPSIS":"540.836","EPOCH":"2022-07-10T20:40:07.107168","CLASSIFICATION_TYPE":"U","BSTAR":"0.00001198300000","ARG_OF_PERICENTER":"57.2328","EPHEMERIS_TYPE":"0","MEAN_MOTION_DDOT":"0.0000000000000","SITE":"AFETR","DECAY_DATE":null,"TLE_LINE1":"1 49746U 21115Y   22191.86119337 -.00000097  00000-0  11983-4 0  9996","NORAD_CAT_ID":"49746","INCLINATION":"53.2154","COUNTRY_CODE":"US","TIME_SYSTEM":"UTC","FILE":"3511318","REV_AT_EPOCH":"3356","TLE_LINE2":"2 49746  53.2154  34.8723 0001517  57.2328 302.8810 15.08826414 33568","OBJECT_ID":"2021-115Y","OBJECT_TYPE":"PAYLOAD","LAUNCH_DATE":"2021-12-02","RCS_SIZE":"LARGE","REF_FRAME":"TEME","PERIOD":"95.438","CENTER_NAME":"EARTH","SEMIMAJOR_AXIS":"6917.922","ELEMENT_SET_NO":"999","RA_OF_ASC_NODE":"34.8723","MEAN_MOTION":"15.08826414","OBJECT_NAME":"STARLINK-3233","GP_ID":"207876027","MEAN_ELEMENT_THEORY":"SGP4","MEAN_ANOMALY":"302.8810"}];
